     3.04           N: GNSS NAV DATA    G: GPS              RINEX VERSION / TYPE
JPS2RIN v.2.1.223   JAVAD GNSS          20230613 000808 UTC PGM / RUN BY / DATE
    18                                                      LEAP SECONDS
GCGO                                    MARKER NAME         COMMENT
40408M006                               MARKER NUMBER       COMMENT
 -2281621.6297 -1453585.1138  5756964.9518                  COMMENT
This data is provided as a public service by NASA/JPL.      COMMENT
No warranty is expressed or implied regarding suitability   COMMENT
for use.  For further information, contact:                 COMMENT
ggnops at jpl dot nasa dot gov                              COMMENT
                                                            END OF HEADER
G24 2023 06 12 04 00 00-2.218289300799D-04-1.318767317571D-11 0.000000000000D+00
     3.600000000000D+01-9.125000000000D+00 5.154500419918D-09 1.736354490797D+00
    -5.122274160385D-07 1.392979128286D-02 1.194514334202D-05 5.153655914307D+03
     1.008000000000D+05-3.781169652939D-07-1.228136387256D+00-7.450580596924D-08
     9.336520107196D-01 1.375312500000D+02 8.963327057293D-01-8.325346784111D-09
    -1.742929742877D-10 1.000000000000D+00 2.266000000000D+03 0.000000000000D+00
     2.000000000000D+00 0.000000000000D+00 2.793968000000D-09 3.600000000000D+01
     9.366000000000D+04 4.000000000000D+00
G25 2023 06 12 04 00 00 4.492164589465D-04 2.501110429876D-12 0.000000000000D+00
     9.100000000000D+01 7.284375000000D+01 4.964492505326D-09-1.253813016288D-01
     3.889203071594D-06 1.106868381612D-02 6.694346666336D-06 5.153722959518D+03
     1.008000000000D+05-6.705522537231D-08-1.050824589348D-01 1.043081283569D-07
     9.533069119851D-01 2.448125000000D+02 1.052683327709D+00-8.566071096959D-09
     5.464513333200D-11 1.000000000000D+00 2.266000000000D+03 0.000000000000D+00
     2.000000000000D+00 0.000000000000D+00 5.587935000000D-09 9.100000000000D+01
     9.999000000000D+04 4.000000000000D+00
G28 2023 06 12 04 00 00 8.299062028527D-05 1.023181539495D-12 0.000000000000D+00
     2.600000000000D+01-5.531250000000D+00 4.565904473963D-09-7.491084630772D-01
    -1.359730958939D-07 6.632988806814D-04 1.081079244614D-05 5.153694660187D+03
     1.008000000000D+05-9.313225746155D-09-1.174334850937D+00-6.891787052155D-08
     9.612401177721D-01 1.679062500000D+02 1.706846972319D+00-7.980332412877D-09
    -2.103659054415D-10 1.000000000000D+00 2.266000000000D+03 0.000000000000D+00
     2.000000000000D+00 0.000000000000D+00-9.778887000000D-09 7.940000000000D+02
     9.558000000000D+04 4.000000000000D+00
G31 2023 06 12 04 00 00-2.179900184274D-04-7.958078640513D-13 0.000000000000D+00
     8.700000000000D+01 1.031250000000D+01 4.715910722325D-09-1.357043172238D-01
     5.811452865601D-07 1.032369607128D-02 1.058168709278D-05 5.153577766418D+03
     1.008000000000D+05 4.842877388000D-08-1.117103432962D+00 1.061707735062D-07
     9.541987990100D-01 1.717187500000D+02 5.423861996023D-01-8.192484106990D-09
    -1.964367538078D-10 1.000000000000D+00 2.266000000000D+03 0.000000000000D+00
     2.000000000000D+00 0.000000000000D+00-1.350418000000D-08 8.700000000000D+01
     9.912000000000D+04 4.000000000000D+00
G32 2023 06 12 04 00 00-4.982505925000D-04-8.526512829121D-12 0.000000000000D+00
     8.000000000000D+01-5.521875000000D+01 4.928062416438D-09-2.026228805774D+00
    -2.793967723846D-06 6.941130501218D-03 6.249174475670D-06 5.153751697540D+03
     1.008000000000D+05 1.192092895508D-07-2.196051844111D+00-1.117587089539D-08
     9.596108425005D-01 2.565000000000D+02-2.201734252418D+00-8.205341785421D-09
    -3.678724662220D-11 1.000000000000D+00 2.266000000000D+03 0.000000000000D+00
     2.000000000000D+00 0.000000000000D+00 4.656613000000D-10 8.000000000000D+01
     9.366000000000D+04 4.000000000000D+00
G01 2023 06 12 05 59 44 1.789261586964D-04-2.387423592154D-12 0.000000000000D+00
     5.700000000000D+01-2.821875000000D+01 3.437643191637D-09 2.472142426449D+00
    -1.521781086922D-06 1.292064820882D-02 9.668990969658D-06 5.153649343491D+03
     1.079840000000D+05 6.705522537231D-08 2.019893198694D+00-2.104789018631D-07
     9.899314449953D-01 2.078437500000D+02 9.735702130843D-01-7.484954635547D-09
     8.464638300447D-11 1.000000000000D+00 2.266000000000D+03 0.000000000000D+00
     2.000000000000D+00 0.000000000000D+00 4.656613000000D-09 5.700000000000D+01
     1.008600000000D+05 4.000000000000D+00
G26 2023 06 12 05 59 44 2.392157912254D-04-7.958078640513D-13 0.000000000000D+00
     3.000000000000D+00 7.481250000000D+01 5.407725253463D-09 2.157513090109D-01
     3.984197974205D-06 7.909290725365D-03 6.671994924545D-06 5.153702089310D+03
     1.079840000000D+05-7.450580596924D-09-1.610820223528D-01 4.656612873077D-08
     9.340696709053D-01 2.312500000000D+02 4.641335104866D-01-8.674289890420D-09
     3.571577341961D-13 1.000000000000D+00 2.266000000000D+03 0.000000000000D+00
     2.000000000000D+00 0.000000000000D+00 6.984919000000D-09 3.000000000000D+00
     1.054200000000D+05 4.000000000000D+00
G02 2023 06 12 06 00 00-5.865735001862D-04 3.524291969370D-12 0.000000000000D+00
     4.200000000000D+01-2.496875000000D+01 4.080527113190D-09-1.155259459799D+00
    -1.097097992897D-06 1.592004427221D-02 9.723007678986D-06 5.153565719604D+03
     1.080000000000D+05-2.291053533554D-07 1.920912164376D+00 2.216547727585D-07
     9.673515692300D-01 2.022187500000D+02-1.385438789589D+00-8.124981295227D-09
     7.928901699153D-11 1.000000000000D+00 2.266000000000D+03 0.000000000000D+00
     2.000000000000D+00 0.000000000000D+00-1.769513000000D-08 4.200000000000D+01
     1.008600000000D+05 4.000000000000D+00
G03 2023 06 12 06 00 00-2.733487635851D-04 1.307398633799D-11 0.000000000000D+00
     6.700000000000D+01 1.153125000000D+01 4.163387707524D-09 1.312427143470D+00
     5.327165126801D-07 4.917449783534D-03 6.875023245811D-06 5.153655344009D+03
     1.080000000000D+05-1.098960638046D-07 3.050119219766D+00 6.705522537231D-08
     9.795362358560D-01 2.537500000000D+02 1.037314633050D+00-8.067121742287D-09
     4.493044296187D-10 1.000000000000D+00 2.266000000000D+03 0.000000000000D+00
     2.000000000000D+00 0.000000000000D+00 1.862645000000D-09 6.700000000000D+01
     1.008600000000D+05 4.000000000000D+00
G04 2023 06 12 06 00 00 6.605638191104D-05 1.023181539495D-11 0.000000000000D+00
     9.900000000000D+01-5.215625000000D+01 4.815200572432D-09-2.074576271892D+00
    -2.922490239143D-06 2.406999585219D-03 6.949529051781D-06 5.153658197403D+03
     1.080000000000D+05 1.862645149231D-08-2.152522210493D+00-9.872019290924D-08
     9.626658206783D-01 2.499062500000D+02-2.980527192933D+00-8.215342201978D-09
    -6.821712723145D-11 1.000000000000D+00 2.266000000000D+03 0.000000000000D+00
     2.000000000000D+00 0.000000000000D+00-4.656613000000D-09 9.900000000000D+01
     1.008300000000D+05 4.000000000000D+00
G06 2023 06 12 06 00 00 5.854349583387D-04-1.818989403546D-12 0.000000000000D+00
     3.900000000000D+01-1.396875000000D+01 3.568720080087D-09 2.657490516130D+00
    -6.724148988724D-07 2.725439611822D-03 9.851530194283D-06 5.153683227539D+03
     1.080000000000D+05-4.097819328308D-08 2.011565228852D+00-5.774199962616D-08
     9.891341824376D-01 2.065312500000D+02-7.421785484527D-01-7.564600810273D-09
     3.571577341961D-12 1.000000000000D+00 2.266000000000D+03 0.000000000000D+00
     2.000000000000D+00 0.000000000000D+00 3.725290000000D-09 3.900000000000D+01
     1.019100000000D+05 4.000000000000D+00
G09 2023 06 12 06 00 00-1.377216540277D-04 8.867573342286D-12 0.000000000000D+00
     4.700000000000D+01-4.668750000000D+01 5.000565436479D-09-1.169974206670D+00
    -2.464279532433D-06 2.393491915427D-03 6.686896085739D-06 5.153597763062D+03
     1.080000000000D+05-7.823109626770D-08-2.209345377772D+00-4.284083843231D-08
     9.560059724346D-01 2.540000000000D+02 1.948571357544D+00-8.333204254263D-09
    -6.857428496565D-11 1.000000000000D+00 2.266000000000D+03 0.000000000000D+00
     2.000000000000D+00 0.000000000000D+00 9.313226000000D-10 4.700000000000D+01
     1.032300000000D+05 4.000000000000D+00
G11 2023 06 12 06 00 00-2.322397194803D-04-1.500666257925D-11 0.000000000000D+00
     2.260000000000D+02-1.278125000000D+01 3.975522739337D-09-2.159736564668D+00
    -6.072223186493D-07 8.890795288607D-04 1.037120819092D-05 5.153762516022D+03
     1.080000000000D+05-8.195638656616D-08 2.052534545171D+00 7.450580596924D-08
     9.653781585724D-01 1.820000000000D+02-2.896254421833D+00-7.819254274755D-09
     1.350056235261D-10 1.000000000000D+00 2.266000000000D+03 0.000000000000D+00
     2.000000000000D+00 0.000000000000D+00-8.847564000000D-09 4.820000000000D+02
     1.069800000000D+05 4.000000000000D+00
G12 2023 06 12 06 00 00-3.875461407006D-04-4.661160346586D-12 0.000000000000D+00
     2.000000000000D+01 7.115625000000D+01 4.697338520147D-09 1.098473661300D+00
     3.516674041748D-06 8.757678326219D-03 6.336718797684D-06 5.153589895248D+03
     1.080000000000D+05-1.601874828339D-07-2.268646105074D-02-7.450580596924D-08
     9.656155170307D-01 2.621250000000D+02 1.379555012072D+00-8.346776248162D-09
     2.142946405177D-11 1.000000000000D+00 2.266000000000D+03 0.000000000000D+00
     2.000000000000D+00 0.000000000000D+00-1.257285000000D-08 2.000000000000D+01
     1.008600000000D+05 4.000000000000D+00
